[{"OBJECT_NAME":"FLOCK 4BE-24","OBJECT_ID":"2024-149AP","EPOCH":"2026-04-25T16:08:47.626080","MEAN_MOTION":15.41090252,"ECCENTRICITY":0.00054611,"INCLINATION":97.3717,"RA_OF_ASC_NODE":199.5299,"ARG_OF_PERICENTER":118.1449,"MEAN_ANOMALY":242.035,"EPHEMERIS_TYPE":0,"CLASSIFICATION_TYPE":"U","NORAD_CAT_ID":60505,"ELEMENT_SET_NO":999,"REV_AT_EPOCH":9427,"BSTAR":0.00047091046,"MEAN_MOTION_DOT":0.00019424,"MEAN_MOTION_DDOT":0},{"OBJECT_NAME":"TANAGER-1","OBJECT_ID":"2024-149AR","EPOCH":"2026-04-25T19:35:11.553216","MEAN_MOTION":15.44257878,"ECCENTRICITY":0.00075971,"INCLINATION":97.3468,"RA_OF_ASC_NODE":209.7998,"ARG_OF_PERICENTER":130.075,"MEAN_ANOMALY":230.1165,"EPHEMERIS_TYPE":0,"CLASSIFICATION_TYPE":"U","NORAD_CAT_ID":60507,"ELEMENT_SET_NO":999,"REV_AT_EPOCH":9495,"BSTAR":0.00031949582,"MEAN_MOTION_DOT":0.00014624,"MEAN_MOTION_DDOT":0},{"OBJECT_NAME":"FLOCK 4BE-29","OBJECT_ID":"2024-149AT","EPOCH":"2026-04-25T18:56:11.860224","MEAN_MOTION":15.42394037,"ECCENTRICITY":0.00042888,"INCLINATION":97.3804,"RA_OF_ASC_NODE":200.945,"ARG_OF_PERICENTER":122.6186,"MEAN_ANOMALY":237.5475,"EPHEMERIS_TYPE":0,"CLASSIFICATION_TYPE":"U","NORAD_CAT_ID":60509,"ELEMENT_SET_NO":999,"REV_AT_EPOCH":9433,"BSTAR":0.00045062681,"MEAN_MOTION_DOT":0.00019404,"MEAN_MOTION_DDOT":0},{"OBJECT_NAME":"FLOCK 4BE-2","OBJECT_ID":"2024-149AV","EPOCH":"2026-04-25T19:56:03.230016","MEAN_MOTION":15.47528529,"ECCENTRICITY":0.00048398,"INCLINATION":97.3817,"RA_OF_ASC_NODE":201.8572,"ARG_OF_PERICENTER":123.6649,"MEAN_ANOMALY":236.5063,"EPHEMERIS_TYPE":0,"CLASSIFICATION_TYPE":"U","NORAD_CAT_ID":60511,"ELEMENT_SET_NO":999,"REV_AT_EPOCH":9439,"BSTAR":0.00097999097,"MEAN_MOTION_DOT":0.00050565,"MEAN_MOTION_DDOT":0},{"OBJECT_NAME":"FLOCK 4BE-13","OBJECT_ID":"2024-149AW","EPOCH":"2026-04-25T18:12:21.214368","MEAN_MOTION":15.40437603,"ECCENTRICITY":0.0005585,"INCLINATION":97.3719,"RA_OF_ASC_NODE":199.684,"ARG_OF_PERICENTER":102.7225,"MEAN_ANOMALY":257.4646,"EPHEMERIS_TYPE":0,"CLASSIFICATION_TYPE":"U","NORAD_CAT_ID":60512,"ELEMENT_SET_NO":999,"REV_AT_EPOCH":9429,"BSTAR":0.00036797,"MEAN_MOTION_DOT":0.00014827,"MEAN_MOTION_DDOT":0},{"OBJECT_NAME":"FLOCK 4BE-27","OBJECT_ID":"2024-149AX","EPOCH":"2026-04-25T17:56:38.989536","MEAN_MOTION":15.33518416,"ECCENTRICITY":0.00055365,"INCLINATION":97.3825,"RA_OF_ASC_NODE":197.6113,"ARG_OF_PERICENTER":123.1706,"MEAN_ANOMALY":237.0068,"EPHEMERIS_TYPE":0,"CLASSIFICATION_TYPE":"U","NORAD_CAT_ID":60513,"ELEMENT_SET_NO":999,"REV_AT_EPOCH":9410,"BSTAR":0.00028744166,"MEAN_MOTION_DOT":9.24e-5,"MEAN_MOTION_DDOT":0},{"OBJECT_NAME":"FLOCK 4BE-9","OBJECT_ID":"2024-149AY","EPOCH":"2026-04-25T18:47:16.753056","MEAN_MOTION":15.39192666,"ECCENTRICITY":0.00044987,"INCLINATION":97.3789,"RA_OF_ASC_NODE":199.6118,"ARG_OF_PERICENTER":124.3781,"MEAN_ANOMALY":235.7891,"EPHEMERIS_TYPE":0,"CLASSIFICATION_TYPE":"U","NORAD_CAT_ID":60514,"ELEMENT_SET_NO":999,"REV_AT_EPOCH":9425,"BSTAR":0.00043314964,"MEAN_MOTION_DOT":0.00016769,"MEAN_MOTION_DDOT":0},{"OBJECT_NAME":"FLOCK 4BE-6","OBJECT_ID":"2024-149BA","EPOCH":"2026-04-25T16:58:52.048704","MEAN_MOTION":15.38122619,"ECCENTRICITY":0.00052265,"INCLINATION":97.379,"RA_OF_ASC_NODE":198.9876,"ARG_OF_PERICENTER":123.2243,"MEAN_ANOMALY":236.9504,"EPHEMERIS_TYPE":0,"CLASSIFICATION_TYPE":"U","NORAD_CAT_ID":60516,"ELEMENT_SET_NO":999,"REV_AT_EPOCH":9420,"BSTAR":0.00041346228,"MEAN_MOTION_DOT":0.00015453,"MEAN_MOTION_DDOT":0},{"OBJECT_NAME":"FLOCK 4BE-14","OBJECT_ID":"2024-149BB","EPOCH":"2026-04-25T17:40:07.367232","MEAN_MOTION":15.39348265,"ECCENTRICITY":0.00061732,"INCLINATION":97.3695,"RA_OF_ASC_NODE":199.113,"ARG_OF_PERICENTER":122.7844,"MEAN_ANOMALY":237.3997,"EPHEMERIS_TYPE":0,"CLASSIFICATION_TYPE":"U","NORAD_CAT_ID":60517,"ELEMENT_SET_NO":999,"REV_AT_EPOCH":9425,"BSTAR":0.00042667454,"MEAN_MOTION_DOT":0.00016606,"MEAN_MOTION_DDOT":0},{"OBJECT_NAME":"FLOCK 4BE-1","OBJECT_ID":"2024-149BC","EPOCH":"2026-04-25T05:16:54.808320","MEAN_MOTION":15.40815828,"ECCENTRICITY":0.000574,"INCLINATION":97.3777,"RA_OF_ASC_NODE":199.6876,"ARG_OF_PERICENTER":124.5317,"MEAN_ANOMALY":235.6472,"EPHEMERIS_TYPE":0,"CLASSIFICATION_TYPE":"U","NORAD_CAT_ID":60518,"ELEMENT_SET_NO":999,"REV_AT_EPOCH":9421,"BSTAR":0.00045681,"MEAN_MOTION_DOT":0.00018668,"MEAN_MOTION_DDOT":0},{"OBJECT_NAME":"FLOCK 4BE-28","OBJECT_ID":"2024-149BD","EPOCH":"2026-04-25T18:22:53.937984","MEAN_MOTION":15.43037934,"ECCENTRICITY":0.00057913,"INCLINATION":97.3745,"RA_OF_ASC_NODE":200.8048,"ARG_OF_PERICENTER":118.995,"MEAN_ANOMALY":241.1879,"EPHEMERIS_TYPE":0,"CLASSIFICATION_TYPE":"U","NORAD_CAT_ID":60519,"ELEMENT_SET_NO":999,"REV_AT_EPOCH":9435,"BSTAR":0.00042505307,"MEAN_MOTION_DOT":0.000187,"MEAN_MOTION_DDOT":0},{"OBJECT_NAME":"FLOCK 4BE-35","OBJECT_ID":"2024-149CU","EPOCH":"2026-04-25T22:27:38.494080","MEAN_MOTION":15.5404787,"ECCENTRICITY":0.00043588,"INCLINATION":97.3709,"RA_OF_ASC_NODE":200.1955,"ARG_OF_PERICENTER":154.8333,"MEAN_ANOMALY":205.3134,"EPHEMERIS_TYPE":0,"CLASSIFICATION_TYPE":"U","NORAD_CAT_ID":60558,"ELEMENT_SET_NO":999,"REV_AT_EPOCH":9431,"BSTAR":0.0022876061,"MEAN_MOTION_DOT":0.00150677,"MEAN_MOTION_DDOT":0},{"OBJECT_NAME":"FLOCK 4BE-5","OBJECT_ID":"2024-149CV","EPOCH":"2026-04-25T18:26:48.430176","MEAN_MOTION":15.38728848,"ECCENTRICITY":0.00048085,"INCLINATION":97.3841,"RA_OF_ASC_NODE":199.3276,"ARG_OF_PERICENTER":124.0729,"MEAN_ANOMALY":236.0973,"EPHEMERIS_TYPE":0,"CLASSIFICATION_TYPE":"U","NORAD_CAT_ID":60559,"ELEMENT_SET_NO":999,"REV_AT_EPOCH":9421,"BSTAR":0.00041606857,"MEAN_MOTION_DOT":0.00015861,"MEAN_MOTION_DDOT":0},{"OBJECT_NAME":"FLOCK 4BE-12","OBJECT_ID":"2024-149CW","EPOCH":"2026-04-25T04:33:51.264288","MEAN_MOTION":15.59399549,"ECCENTRICITY":0.00049385,"INCLINATION":97.3666,"RA_OF_ASC_NODE":200.4253,"ARG_OF_PERICENTER":170.0019,"MEAN_ANOMALY":190.1336,"EPHEMERIS_TYPE":0,"CLASSIFICATION_TYPE":"U","NORAD_CAT_ID":60560,"ELEMENT_SET_NO":999,"REV_AT_EPOCH":9428,"BSTAR":0.0025033193,"MEAN_MOTION_DOT":0.0020227,"MEAN_MOTION_DDOT":0},{"OBJECT_NAME":"FLOCK 4BE-3","OBJECT_ID":"2024-149CX","EPOCH":"2026-04-25T19:12:27.902880","MEAN_MOTION":15.3991194,"ECCENTRICITY":0.00059083,"INCLINATION":97.3697,"RA_OF_ASC_NODE":199.2765,"ARG_OF_PERICENTER":117.714,"MEAN_ANOMALY":242.4706,"EPHEMERIS_TYPE":0,"CLASSIFICATION_TYPE":"U","NORAD_CAT_ID":60561,"ELEMENT_SET_NO":999,"REV_AT_EPOCH":9427,"BSTAR":0.00050033378,"MEAN_MOTION_DOT":0.00019858,"MEAN_MOTION_DDOT":0},{"OBJECT_NAME":"FLOCK 4BE-19","OBJECT_ID":"2024-149CZ","EPOCH":"2026-04-25T19:14:02.602464","MEAN_MOTION":15.42315077,"ECCENTRICITY":0.00057549,"INCLINATION":97.3738,"RA_OF_ASC_NODE":200.5754,"ARG_OF_PERICENTER":119.4862,"MEAN_ANOMALY":240.696,"EPHEMERIS_TYPE":0,"CLASSIFICATION_TYPE":"U","NORAD_CAT_ID":60563,"ELEMENT_SET_NO":999,"REV_AT_EPOCH":9434,"BSTAR":0.00048486556,"MEAN_MOTION_DOT":0.00020839,"MEAN_MOTION_DDOT":0}]
